ATLAS CENTAUR 2         
1 00694U 63047A   25358.03809387  .00001985  00000+0  23191-3 0  9991
2 00694  30.3528 258.3470 0548728 133.7055 231.0355 14.11807120120927
THOR AGENA D R/B        
1 00733U 64002A   25358.02614871  .00000221  00000+0  96191-4 0  9991
2 00733  99.1219   2.2552 0033779 117.9814 242.4794 14.33966108227455
SL-3 R/B                
1 00877U 64053B   25358.00157780  .00000156  00000+0  54638-4 0  9992
2 00877  65.0748 193.1214 0074820 316.6395  42.8833 14.61283769255736
SL-8 R/B                
1 02802U 67045B   25358.07341856  .00000435  00000+0  12807-3 0  9993
2 02802  74.0107 129.2994 0063720 155.8365 204.5805 14.45548297 78097
SL-8 R/B                
1 03230U 68040B   25358.29206829  .00003476  00000+0  26230-3 0  9992
2 03230  74.0314 107.6810 0025991 307.4161  52.4662 15.02603286 78687
OAO 2                   
1 03597U 68110A   25358.03331506  .00000246  00000+0  71560-4 0  9998
2 03597  34.9949 327.6135 0005956 306.2514  53.7626 14.47250668  8131
ISIS 1                  
1 03669U 69009A   25358.21259526  .00000243  00000+0  17504-3 0  9991
2 03669  88.4491 163.5413 1707043 241.5110 100.3738 11.30359532340000
SERT 2                  
1 04327U 70009A   25358.13689604  .00000042  00000+0  11381-3 0  9994
2 04327  99.2669 300.4022 0005048   8.0331   3.2029 13.58719365769637
SL-3 R/B                
1 05118U 71028B   25358.13155323  .00033556  00000+0  49293-3 0  9990
2 05118  81.2383 144.9184 0019160 199.5741 160.4776 15.55104663976904
ASTEX 1                 
1 05560U 71089A   25358.08653820  .00000542  00000+0  13826-3 0  9999
2 05560  92.7147 127.2907 0014906 348.3043  11.7815 14.50655478851340
SL-8 R/B                
1 05730U 71119B   25358.25213137  .00012443  00000+0  64662-3 0  9991
2 05730  73.8899 316.5336 0558478 298.4906  56.1079 14.36006132644652
OAO 3 (COPERNICUS)      
1 06153U 72065A   25358.09478204  .00000387  00000+0  83867-4 0  9995
2 06153  35.0070   7.9825 0007230 262.3061 140.1491 14.59915820835140
