CCSDS_OMM_VERS = 2.0
CREATION_DATE  = 
ORIGINATOR     = 

OBJECT_NAME    = ATLAS CENTAUR 2
OBJECT_ID      = 1963-047A
CENTER_NAME    = EARTH
REF_FRAME      = TEME
TIME_SYSTEM    = UTC
MEAN_ELEMENT_THEORY = SGP/SGP4

EPOCH          = 2025-12-24T00:54:51.310368
MEAN_MOTION    = 14.11807120
ECCENTRICITY   = .0548728
INCLINATION    = 30.3528
RA_OF_ASC_NODE = 258.3470
ARG_OF_PERICENTER = 133.7055
MEAN_ANOMALY   = 231.0355

EPHEMERIS_TYPE = 0
CLASSIFICATION_TYPE = U
NORAD_CAT_ID   = 694
ELEMENT_SET_NO = 999
REV_AT_EPOCH   = 12092
BSTAR          = .23191304E-3
MEAN_MOTION_DOT = .1985E-4
MEAN_MOTION_DDOT = 0

CCSDS_OMM_VERS = 2.0
CREATION_DATE  = 
ORIGINATOR     = 

OBJECT_NAME    = THOR AGENA D R/B
OBJECT_ID      = 1964-002A
CENTER_NAME    = EARTH
REF_FRAME      = TEME
TIME_SYSTEM    = UTC
MEAN_ELEMENT_THEORY = SGP/SGP4

EPOCH          = 2025-12-24T00:37:39.248544
MEAN_MOTION    = 14.33966108
ECCENTRICITY   = .00337798
INCLINATION    = 99.1219
RA_OF_ASC_NODE = 2.2552
ARG_OF_PERICENTER = 117.9814
MEAN_ANOMALY   = 242.4794

EPHEMERIS_TYPE = 0
CLASSIFICATION_TYPE = U
NORAD_CAT_ID   = 733
ELEMENT_SET_NO = 999
REV_AT_EPOCH   = 22745
BSTAR          = .96191244E-4
MEAN_MOTION_DOT = .221E-5
MEAN_MOTION_DDOT = 0

CCSDS_OMM_VERS = 2.0
CREATION_DATE  = 
ORIGINATOR     = 

OBJECT_NAME    = SL-3 R/B
OBJECT_ID      = 1964-053B
CENTER_NAME    = EARTH
REF_FRAME      = TEME
TIME_SYSTEM    = UTC
MEAN_ELEMENT_THEORY = SGP/SGP4

EPOCH          = 2025-12-24T00:02:16.321920
MEAN_MOTION    = 14.61283769
ECCENTRICITY   = .00748209
INCLINATION    = 65.0748
RA_OF_ASC_NODE = 193.1214
ARG_OF_PERICENTER = 316.6395
MEAN_ANOMALY   = 42.8833

EPHEMERIS_TYPE = 0
CLASSIFICATION_TYPE = U
NORAD_CAT_ID   = 877
ELEMENT_SET_NO = 999
REV_AT_EPOCH   = 25573
BSTAR          = .54637878E-4
MEAN_MOTION_DOT = .156E-5
MEAN_MOTION_DDOT = 0

CCSDS_OMM_VERS = 2.0
CREATION_DATE  = 
ORIGINATOR     = 

OBJECT_NAME    = SL-8 R/B
OBJECT_ID      = 1967-045B
CENTER_NAME    = EARTH
REF_FRAME      = TEME
TIME_SYSTEM    = UTC
MEAN_ELEMENT_THEORY = SGP/SGP4

EPOCH          = 2025-12-24T01:45:43.363584
MEAN_MOTION    = 14.45548297
ECCENTRICITY   = .00637206
INCLINATION    = 74.0107
RA_OF_ASC_NODE = 129.2994
ARG_OF_PERICENTER = 155.8365
MEAN_ANOMALY   = 204.5805

EPHEMERIS_TYPE = 0
CLASSIFICATION_TYPE = U
NORAD_CAT_ID   = 2802
ELEMENT_SET_NO = 999
REV_AT_EPOCH   = 7809
BSTAR          = .12807445E-3
MEAN_MOTION_DOT = .435E-5
MEAN_MOTION_DDOT = 0

CCSDS_OMM_VERS = 2.0
CREATION_DATE  = 
ORIGINATOR     = 

OBJECT_NAME    = SL-8 R/B
OBJECT_ID      = 1968-040B
CENTER_NAME    = EARTH
REF_FRAME      = TEME
TIME_SYSTEM    = UTC
MEAN_ELEMENT_THEORY = SGP/SGP4

EPOCH          = 2025-12-24T07:00:34.700256
MEAN_MOTION    = 15.02603286
ECCENTRICITY   = .00259915
INCLINATION    = 74.0314
RA_OF_ASC_NODE = 107.6810
ARG_OF_PERICENTER = 307.4161
MEAN_ANOMALY   = 52.4662

EPHEMERIS_TYPE = 0
CLASSIFICATION_TYPE = U
NORAD_CAT_ID   = 3230
ELEMENT_SET_NO = 999
REV_AT_EPOCH   = 7868
BSTAR          = .26229805E-3
MEAN_MOTION_DOT = .3476E-4
MEAN_MOTION_DDOT = 0

CCSDS_OMM_VERS = 2.0
CREATION_DATE  = 
ORIGINATOR     = 

OBJECT_NAME    = OAO 2
OBJECT_ID      = 1968-110A
CENTER_NAME    = EARTH
REF_FRAME      = TEME
TIME_SYSTEM    = UTC
MEAN_ELEMENT_THEORY = SGP/SGP4

EPOCH          = 2025-12-24T00:47:58.421184
MEAN_MOTION    = 14.47250668
ECCENTRICITY   = .00059562
INCLINATION    = 34.9949
RA_OF_ASC_NODE = 327.6135
ARG_OF_PERICENTER = 306.2514
MEAN_ANOMALY   = 53.7626

EPHEMERIS_TYPE = 0
CLASSIFICATION_TYPE = U
NORAD_CAT_ID   = 3597
ELEMENT_SET_NO = 999
REV_AT_EPOCH   = 813
BSTAR          = .71560425E-4
MEAN_MOTION_DOT = .246E-5
MEAN_MOTION_DDOT = 0

CCSDS_OMM_VERS = 2.0
CREATION_DATE  = 
ORIGINATOR     = 

OBJECT_NAME    = ISIS 1
OBJECT_ID      = 1969-009A
CENTER_NAME    = EARTH
REF_FRAME      = TEME
TIME_SYSTEM    = UTC
MEAN_ELEMENT_THEORY = SGP/SGP4

EPOCH          = 2025-12-24T05:06:08.230464
MEAN_MOTION    = 11.30359532
ECCENTRICITY   = .17070431
INCLINATION    = 88.4491
RA_OF_ASC_NODE = 163.5413
ARG_OF_PERICENTER = 241.5110
MEAN_ANOMALY   = 100.3738

EPHEMERIS_TYPE = 0
CLASSIFICATION_TYPE = U
NORAD_CAT_ID   = 3669
ELEMENT_SET_NO = 999
REV_AT_EPOCH   = 34000
BSTAR          = .1750385E-3
MEAN_MOTION_DOT = .243E-5
MEAN_MOTION_DDOT = 0

CCSDS_OMM_VERS = 2.0
CREATION_DATE  = 
ORIGINATOR     = 

OBJECT_NAME    = SERT 2
OBJECT_ID      = 1970-009A
CENTER_NAME    = EARTH
REF_FRAME      = TEME
TIME_SYSTEM    = UTC
MEAN_ELEMENT_THEORY = SGP/SGP4

EPOCH          = 2025-12-24T03:17:07.817856
MEAN_MOTION    = 13.58719365
ECCENTRICITY   = .00050486
INCLINATION    = 99.2669
RA_OF_ASC_NODE = 300.4022
ARG_OF_PERICENTER = 8.0331
MEAN_ANOMALY   = 3.2029

EPHEMERIS_TYPE = 0
CLASSIFICATION_TYPE = U
NORAD_CAT_ID   = 4327
ELEMENT_SET_NO = 999
REV_AT_EPOCH   = 76963
BSTAR          = .11380945E-3
MEAN_MOTION_DOT = .42E-6
MEAN_MOTION_DDOT = 0

CCSDS_OMM_VERS = 2.0
CREATION_DATE  = 
ORIGINATOR     = 

OBJECT_NAME    = SL-3 R/B
OBJECT_ID      = 1971-028B
CENTER_NAME    = EARTH
REF_FRAME      = TEME
TIME_SYSTEM    = UTC
MEAN_ELEMENT_THEORY = SGP/SGP4

EPOCH          = 2025-12-24T03:09:26.199072
MEAN_MOTION    = 15.55104663
ECCENTRICITY   = .00191609
INCLINATION    = 81.2383
RA_OF_ASC_NODE = 144.9184
ARG_OF_PERICENTER = 199.5741
MEAN_ANOMALY   = 160.4776

EPHEMERIS_TYPE = 0
CLASSIFICATION_TYPE = U
NORAD_CAT_ID   = 5118
ELEMENT_SET_NO = 999
REV_AT_EPOCH   = 97690
BSTAR          = .49293287E-3
MEAN_MOTION_DOT = .33556E-3
MEAN_MOTION_DDOT = 0

CCSDS_OMM_VERS = 2.0
CREATION_DATE  = 
ORIGINATOR     = 

OBJECT_NAME    = ASTEX 1
OBJECT_ID      = 1971-089A
CENTER_NAME    = EARTH
REF_FRAME      = TEME
TIME_SYSTEM    = UTC
MEAN_ELEMENT_THEORY = SGP/SGP4

EPOCH          = 2025-12-24T02:04:36.900480
MEAN_MOTION    = 14.50655478
ECCENTRICITY   = .00149061
INCLINATION    = 92.7147
RA_OF_ASC_NODE = 127.2907
ARG_OF_PERICENTER = 348.3043
MEAN_ANOMALY   = 11.7815

EPHEMERIS_TYPE = 0
CLASSIFICATION_TYPE = U
NORAD_CAT_ID   = 5560
ELEMENT_SET_NO = 999
REV_AT_EPOCH   = 85134
BSTAR          = .13826346E-3
MEAN_MOTION_DOT = .542E-5
MEAN_MOTION_DDOT = 0

CCSDS_OMM_VERS = 2.0
CREATION_DATE  = 
ORIGINATOR     = 

OBJECT_NAME    = SL-8 R/B
OBJECT_ID      = 1971-119B
CENTER_NAME    = EARTH
REF_FRAME      = TEME
TIME_SYSTEM    = UTC
MEAN_ELEMENT_THEORY = SGP/SGP4

EPOCH          = 2025-12-24T06:03:04.150368
MEAN_MOTION    = 14.36006132
ECCENTRICITY   = .05584789
INCLINATION    = 73.8899
RA_OF_ASC_NODE = 316.5336
ARG_OF_PERICENTER = 298.4906
MEAN_ANOMALY   = 56.1079

EPHEMERIS_TYPE = 0
CLASSIFICATION_TYPE = U
NORAD_CAT_ID   = 5730
ELEMENT_SET_NO = 999
REV_AT_EPOCH   = 64465
BSTAR          = .64661796E-3
MEAN_MOTION_DOT = .12443E-3
MEAN_MOTION_DDOT = 0

CCSDS_OMM_VERS = 2.0
CREATION_DATE  = 
ORIGINATOR     = 

OBJECT_NAME    = OAO 3 (COPERNICUS)
OBJECT_ID      = 1972-065A
CENTER_NAME    = EARTH
REF_FRAME      = TEME
TIME_SYSTEM    = UTC
MEAN_ELEMENT_THEORY = SGP/SGP4

EPOCH          = 2025-12-24T02:16:29.168256
MEAN_MOTION    = 14.59915820
ECCENTRICITY   = .000723
INCLINATION    = 35.0070
RA_OF_ASC_NODE = 7.9825
ARG_OF_PERICENTER = 262.3061
MEAN_ANOMALY   = 140.1491

EPHEMERIS_TYPE = 0
CLASSIFICATION_TYPE = U
NORAD_CAT_ID   = 6153
ELEMENT_SET_NO = 999
REV_AT_EPOCH   = 83514
BSTAR          = .83867467E-4
MEAN_MOTION_DOT = .387E-5
MEAN_MOTION_DDOT = 0

